<?xml version="1.0" encoding="UTF-8"?>
<gpx version="1.1" creator="Copilot Simulation" xmlns="http://www.topografix.com/GPX/1/1">
  <trk><name>sim_route_5_2860km</name><trkseg>
    <trkpt lat="48.200000" lon="8.100000"></trkpt>
    <trkpt lat="48.191017" lon="8.436935"></trkpt>
    <trkpt lat="48.217966" lon="8.706435"></trkpt>
    <trkpt lat="48.235932" lon="9.070452"></trkpt>
    <trkpt lat="48.235932" lon="9.367162"></trkpt>
    <trkpt lat="48.217966" lon="9.758281"></trkpt>
    <trkpt lat="48.191017" lon="10.081851"></trkpt>
    <trkpt lat="48.200000" lon="10.337877"></trkpt>
    <trkpt lat="48.208983" lon="10.688289"></trkpt>
    <trkpt lat="48.182034" lon="10.971363"></trkpt>
    <trkpt lat="48.164068" lon="11.348598"></trkpt>
    <trkpt lat="48.164068" lon="11.658360"></trkpt>
    <trkpt lat="48.182034" lon="11.900783"></trkpt>
    <trkpt lat="48.208983" lon="12.237599"></trkpt>
    <trkpt lat="48.200000" lon="12.507194"></trkpt>
    <trkpt lat="48.191017" lon="12.871084"></trkpt>
    <trkpt lat="48.217966" lon="13.167534"></trkpt>
    <trkpt lat="48.235932" lon="13.558515"></trkpt>
    <trkpt lat="48.235932" lon="13.882199"></trkpt>
    <trkpt lat="48.217966" lon="14.138449"></trkpt>
    <trkpt lat="48.191017" lon="14.488984"></trkpt>
    <trkpt lat="48.200000" lon="14.771960"></trkpt>
    <trkpt lat="48.208983" lon="15.149326"></trkpt>
    <trkpt lat="48.182034" lon="15.459360"></trkpt>
    <trkpt lat="48.164068" lon="15.701868"></trkpt>
    <trkpt lat="48.164068" lon="16.038567"></trkpt>
    <trkpt lat="48.182034" lon="16.307925"></trkpt>
    <trkpt lat="48.208983" lon="16.671687"></trkpt>
    <trkpt lat="48.200000" lon="16.968242"></trkpt>
    <trkpt lat="48.191017" lon="17.359086"></trkpt>
    <trkpt lat="48.217966" lon="17.682486"></trkpt>
    <trkpt lat="48.235932" lon="17.938646"></trkpt>
    <trkpt lat="48.235932" lon="18.289304"></trkpt>
    <trkpt lat="48.217966" lon="18.572528"></trkpt>
    <trkpt lat="48.191017" lon="18.950027"></trkpt>
    <trkpt lat="48.200000" lon="19.259952"></trkpt>
    <trkpt lat="48.208983" lon="19.502545"></trkpt>
    <trkpt lat="48.182034" lon="19.839539"></trkpt>
    <trkpt lat="48.164068" lon="20.108992"></trkpt>
    <trkpt lat="48.164068" lon="20.472626"></trkpt>
    <trkpt lat="48.182034" lon="20.768921"></trkpt>
    <trkpt lat="48.208983" lon="21.159628"></trkpt>
    <trkpt lat="48.200000" lon="21.483142"></trkpt>
    <trkpt lat="48.191017" lon="21.739212"></trkpt>
    <trkpt lat="48.217966" lon="22.089562"></trkpt>
    <trkpt lat="48.235932" lon="22.372687"></trkpt>
    <trkpt lat="48.235932" lon="22.750318"></trkpt>
    <trkpt lat="48.217966" lon="23.060516"></trkpt>
    <trkpt lat="48.191017" lon="23.303194"></trkpt>
    <trkpt lat="48.200000" lon="23.640069"></trkpt>
    <trkpt lat="48.208983" lon="23.909617"></trkpt>
    <trkpt lat="48.182034" lon="24.273570"></trkpt>
    <trkpt lat="48.164068" lon="24.569968"></trkpt>
    <trkpt lat="48.164068" lon="24.960538"></trkpt>
    <trkpt lat="48.182034" lon="25.283769"></trkpt>
    <trkpt lat="48.208983" lon="25.539749"></trkpt>
    <trkpt lat="48.200000" lon="25.890223"></trkpt>
    <trkpt lat="48.191017" lon="26.173248"></trkpt>
    <trkpt lat="48.217966" lon="26.550548"></trkpt>
    <trkpt lat="48.235932" lon="26.860637"></trkpt>
    <trkpt lat="48.235932" lon="27.103400"></trkpt>
    <trkpt lat="48.217966" lon="27.440571"></trkpt>
    <trkpt lat="48.191017" lon="27.710213"></trkpt>
    <trkpt lat="48.200000" lon="28.074039"></trkpt>
    <trkpt lat="48.208983" lon="28.370541"></trkpt>
    <trkpt lat="48.182034" lon="28.761453"></trkpt>
    <trkpt lat="48.164068" lon="29.084797"></trkpt>
    <trkpt lat="48.164068" lon="29.340688"></trkpt>
    <trkpt lat="48.182034" lon="29.690854"></trkpt>
    <trkpt lat="48.208983" lon="29.973780"></trkpt>
    <trkpt lat="48.200000" lon="30.351213"></trkpt>
    <trkpt lat="48.191017" lon="30.661193"></trkpt>
    <trkpt lat="48.217966" lon="30.903743"></trkpt>
    <trkpt lat="48.235932" lon="31.240796"></trkpt>
    <trkpt lat="48.235932" lon="31.510533"></trkpt>
    <trkpt lat="48.217966" lon="31.874677"></trkpt>
    <trkpt lat="48.191017" lon="32.171284"></trkpt>
    <trkpt lat="48.200000" lon="32.562059"></trkpt>
    <trkpt lat="48.208983" lon="32.885516"></trkpt>
    <trkpt lat="48.182034" lon="33.141632"></trkpt>
    <trkpt lat="48.164068" lon="33.491921"></trkpt>
    <trkpt lat="48.164068" lon="33.774747"></trkpt>
    <trkpt lat="48.182034" lon="34.151850"></trkpt>
    <trkpt lat="48.208983" lon="34.461721"></trkpt>
    <trkpt lat="48.200000" lon="34.704356"></trkpt>
    <trkpt lat="48.191017" lon="35.041291"></trkpt>
    <trkpt lat="48.217966" lon="35.310791"></trkpt>
    <trkpt lat="48.235932" lon="35.674808"></trkpt>
    <trkpt lat="48.235932" lon="35.971518"></trkpt>
    <trkpt lat="48.217966" lon="36.362637"></trkpt>
    <trkpt lat="48.191017" lon="36.686208"></trkpt>
    <trkpt lat="48.200000" lon="36.942233"></trkpt>
    <trkpt lat="48.208983" lon="37.292645"></trkpt>
    <trkpt lat="48.182034" lon="37.575719"></trkpt>
    <trkpt lat="48.164068" lon="37.952954"></trkpt>
    <trkpt lat="48.164068" lon="38.262716"></trkpt>
    <trkpt lat="48.182034" lon="38.505139"></trkpt>
    <trkpt lat="48.208983" lon="38.841956"></trkpt>
    <trkpt lat="48.200000" lon="39.111550"></trkpt>
    <trkpt lat="48.191017" lon="39.475440"></trkpt>
    <trkpt lat="48.217966" lon="39.771890"></trkpt>
    <trkpt lat="48.235932" lon="40.162871"></trkpt>
    <trkpt lat="48.235932" lon="40.486556"></trkpt>
    <trkpt lat="48.217966" lon="40.742806"></trkpt>
    <trkpt lat="48.191017" lon="41.093340"></trkpt>
    <trkpt lat="48.200000" lon="41.376316"></trkpt>
    <trkpt lat="48.208983" lon="41.753682"></trkpt>
    <trkpt lat="48.182034" lon="42.063717"></trkpt>
    <trkpt lat="48.164068" lon="42.306224"></trkpt>
    <trkpt lat="48.164068" lon="42.642923"></trkpt>
    <trkpt lat="48.182034" lon="42.912282"></trkpt>
    <trkpt lat="48.208983" lon="43.276043"></trkpt>
    <trkpt lat="48.200000" lon="43.572598"></trkpt>
    <trkpt lat="48.191017" lon="43.963442"></trkpt>
    <trkpt lat="48.217966" lon="44.286842"></trkpt>
    <trkpt lat="48.235932" lon="44.543002"></trkpt>
    <trkpt lat="48.235932" lon="44.893660"></trkpt>
    <trkpt lat="48.217966" lon="45.176884"></trkpt>
    <trkpt lat="48.191017" lon="45.554383"></trkpt>
    <trkpt lat="48.200000" lon="45.864308"></trkpt>
    <trkpt lat="48.208983" lon="46.106901"></trkpt>
    <trkpt lat="48.182034" lon="46.443895"></trkpt>
    <trkpt lat="48.164068" lon="46.713348"></trkpt>
  </trkseg></trk>
</gpx>
