<?xml version="1.0" encoding="UTF-8"?>
<gpx version="1.1" creator="Copilot Simulation" xmlns="http://www.topografix.com/GPX/1/1">
  <trk><name>sim_route_1_120km</name><trkseg>
    <trkpt lat="41.200000" lon="2.100000"></trkpt>
    <trkpt lat="41.217966" lon="2.446232"></trkpt>
    <trkpt lat="41.217966" lon="2.732848"></trkpt>
    <trkpt lat="41.200000" lon="2.959752"></trkpt>
    <trkpt lat="41.173051" lon="3.270167"></trkpt>
    <trkpt lat="41.182034" lon="3.520784"></trkpt>
    <trkpt lat="41.191017" lon="3.854985"></trkpt>
  </trkseg></trk>
</gpx>
