<?xml version="1.0" encoding="UTF-8"?>
<gpx version="1.1" creator="Copilot Simulation" xmlns="http://www.topografix.com/GPX/1/1">
  <trk><name>sim_route_4_1760km</name><trkseg>
    <trkpt lat="46.000000" lon="6.000000"></trkpt>
    <trkpt lat="46.000000" lon="6.297429"></trkpt>
    <trkpt lat="46.017966" lon="6.530200"></trkpt>
    <trkpt lat="46.044916" lon="6.853597"></trkpt>
    <trkpt lat="46.035932" lon="7.112441"></trkpt>
    <trkpt lat="46.026949" lon="7.461824"></trkpt>
    <trkpt lat="46.053899" lon="7.746460"></trkpt>
    <trkpt lat="46.071865" lon="8.121845"></trkpt>
    <trkpt lat="46.071865" lon="8.432610"></trkpt>
    <trkpt lat="46.053899" lon="8.678632"></trkpt>
    <trkpt lat="46.026949" lon="9.015184"></trkpt>
    <trkpt lat="46.035932" lon="9.286882"></trkpt>
    <trkpt lat="46.044916" lon="9.649205"></trkpt>
    <trkpt lat="46.017966" lon="9.946875"></trkpt>
    <trkpt lat="46.000000" lon="10.179722"></trkpt>
    <trkpt lat="46.000000" lon="10.503014"></trkpt>
    <trkpt lat="46.017966" lon="10.761648"></trkpt>
    <trkpt lat="46.044916" lon="11.110917"></trkpt>
    <trkpt lat="46.035932" lon="11.395646"></trkpt>
    <trkpt lat="46.026949" lon="11.770909"></trkpt>
    <trkpt lat="46.053899" lon="12.081421"></trkpt>
    <trkpt lat="46.071865" lon="12.327363"></trkpt>
    <trkpt lat="46.071865" lon="12.664024"></trkpt>
    <trkpt lat="46.053899" lon="12.935943"></trkpt>
    <trkpt lat="46.026949" lon="13.298384"></trkpt>
    <trkpt lat="46.035932" lon="13.595958"></trkpt>
    <trkpt lat="46.044916" lon="13.828880"></trkpt>
    <trkpt lat="46.017966" lon="14.152435"></trkpt>
    <trkpt lat="46.000000" lon="14.411153"></trkpt>
    <trkpt lat="46.000000" lon="14.760309"></trkpt>
    <trkpt lat="46.017966" lon="15.044806"></trkpt>
    <trkpt lat="46.044916" lon="15.419947"></trkpt>
    <trkpt lat="46.035932" lon="15.730560"></trkpt>
    <trkpt lat="46.026949" lon="15.976422"></trkpt>
    <trkpt lat="46.053899" lon="16.312810"></trkpt>
    <trkpt lat="46.071865" lon="16.584641"></trkpt>
    <trkpt lat="46.071865" lon="16.947200"></trkpt>
    <trkpt lat="46.053899" lon="17.245016"></trkpt>
    <trkpt lat="46.026949" lon="17.478013"></trkpt>
    <trkpt lat="46.035932" lon="17.801463"></trkpt>
    <trkpt lat="46.044916" lon="18.060265"></trkpt>
    <trkpt lat="46.017966" lon="18.409705"></trkpt>
    <trkpt lat="46.000000" lon="18.694295"></trkpt>
    <trkpt lat="46.000000" lon="19.069314"></trkpt>
    <trkpt lat="46.017966" lon="19.379675"></trkpt>
    <trkpt lat="46.044916" lon="19.625457"></trkpt>
    <trkpt lat="46.035932" lon="19.961954"></trkpt>
    <trkpt lat="46.026949" lon="20.233696"></trkpt>
    <trkpt lat="46.053899" lon="20.595960"></trkpt>
    <trkpt lat="46.071865" lon="20.893680"></trkpt>
    <trkpt lat="46.071865" lon="21.126753"></trkpt>
    <trkpt lat="46.053899" lon="21.450466"></trkpt>
    <trkpt lat="46.026949" lon="21.709352"></trkpt>
    <trkpt lat="46.035932" lon="22.058678"></trkpt>
    <trkpt lat="46.044916" lon="22.343361"></trkpt>
    <trkpt lat="46.017966" lon="22.718685"></trkpt>
    <trkpt lat="46.000000" lon="23.029146"></trkpt>
    <trkpt lat="46.000000" lon="23.274849"></trkpt>
    <trkpt lat="46.017966" lon="23.611073"></trkpt>
    <trkpt lat="46.044916" lon="23.882727"></trkpt>
    <trkpt lat="46.035932" lon="24.245108"></trkpt>
    <trkpt lat="46.026949" lon="24.542731"></trkpt>
    <trkpt lat="46.053899" lon="24.775615"></trkpt>
    <trkpt lat="46.071865" lon="25.099223"></trkpt>
    <trkpt lat="46.071865" lon="25.358193"></trkpt>
    <trkpt lat="46.053899" lon="25.707803"></trkpt>
    <trkpt lat="46.026949" lon="25.992578"></trkpt>
    <trkpt lat="46.035932" lon="26.367780"></trkpt>
    <trkpt lat="46.044916" lon="26.678343"></trkpt>
    <trkpt lat="46.017966" lon="26.924245"></trkpt>
    <trkpt lat="46.000000" lon="27.260578"></trkpt>
    <trkpt lat="46.000000" lon="27.532144"></trkpt>
    <trkpt lat="46.017966" lon="27.894231"></trkpt>
    <trkpt lat="46.044916" lon="28.191757"></trkpt>
    <trkpt lat="46.035932" lon="28.424717"></trkpt>
    <trkpt lat="46.026949" lon="28.748219"></trkpt>
  </trkseg></trk>
</gpx>
